OBJECT_NAME,OBJECT_ID,EPOCH,MEAN_MOTION,ECCENTRICITY,INCLINATION,RA_OF_ASC_NODE,ARG_OF_PERICENTER,MEAN_ANOMALY,EPHEMERIS_TYPE,CLASSIFICATION_TYPE,NORAD_CAT_ID,ELEMENT_SET_NO,REV_AT_EPOCH,BSTAR,MEAN_MOTION_DOT,MEAN_MOTION_DDOT
GSAT-10,2012-051B,2026-07-10T03:44:05.074656,1.00272033,.00074714,0.1055,265.9328,186.8596,334.2821,0,U,38779,999,5032,0,-.153E-5,0
INTELSAT 23 (IS-23),2012-057A,2026-07-10T01:30:00.161568,1.00269710,.00004627,0.0141,34.5412,184.3558,38.5923,0,U,38867,999,5018,0,-.273E-5,0
BEIDOU-2 G6,2012-059A,2026-07-10T02:01:44.203296,1.00268183,.00088186,4.4756,73.2802,329.9398,359.1724,0,U,38953,999,5013,0,-.167E-5,0
LUCH-5B,2012-061A,2026-07-10T00:16:23.949984,1.00271225,.00037317,10.5296,49.6499,144.0727,82.0682,0,U,38977,999,4983,0,-.135E-5,0
YAMAL 300K,2012-061B,2026-07-09T14:31:20.004096,1.00269932,.00008653,0.0176,36.1760,210.5911,81.5555,0,U,38978,999,4985,0,0,0
STAR ONE C3,2012-062A,2026-07-10T07:23:38.817888,1.00271895,.00022229,0.0181,39.8592,85.3974,198.9092,0,U,38991,999,4999,0,-.238E-5,0
EUTELSAT 21B,2012-062B,2026-07-10T06:51:53.703072,1.00271769,.00032343,0.0648,3.6548,106.3247,302.7833,0,U,38992,999,5005,0,.141E-5,0
ECHOSTAR 16,2012-065A,2026-07-09T20:12:11.553696,1.00271627,.00021244,0.0180,40.2507,68.3234,60.7553,0,U,39008,999,4987,0,-.27E-5,0
ZHONGXING-12,2012-067A,2026-07-10T07:10:29.419968,1.00269785,.0002765,0.0232,106.3701,356.5492,20.4180,0,U,39017,999,4974,0,-.195E-5,0
EUTELSAT 70B,2012-069A,2026-07-10T06:06:38.630592,1.00270950,.00036402,0.0615,349.6586,118.8966,341.7804,0,U,39020,999,4974,0,-.32E-6,0
YAMAL 402,2012-070A,2026-07-10T05:18:45.811584,1.00272724,.00036004,1.3209,83.8706,24.8195,314.0526,0,U,39022,999,4962,0,.95E-6,0
SKYNET 5D,2012-075A,2026-07-10T06:14:38.594688,1.00274519,.00036466,0.0692,346.3282,138.1661,310.1412,0,U,39034,999,4939,0,.11E-5,0
MEXSAT 3,2012-075B,2026-07-10T08:13:32.623680,1.00275557,.000063,0.0255,281.5915,171.4405,203.8490,0,U,39035,999,728,0,-.16E-6,0
TDRS 11,2013-004A,2026-07-10T04:13:24.761856,1.00277638,.00047456,3.5544,31.6255,29.3237,116.2324,0,U,39070,999,4692,0,.89E-6,0
AMAZONAS 3,2013-006A,2026-07-10T06:37:14.664288,1.00267813,.00033225,0.0582,230.1665,285.0494,171.2537,0,U,39078,999,4514,0,-.271E-5,0
AZERSPACE 1,2013-006B,2026-07-10T06:58:38.056800,1.00273363,.00019203,0.0237,294.6181,216.3728,287.8881,0,U,39079,999,4903,0,.144E-5,0
SBIRS GEO-2 (USA 241),2013-011A,2026-07-10T06:58:04.833408,1.00271485,.00020399,4.5379,52.5137,50.0394,240.3764,0,U,39120,999,4876,0,-.28E-5,0
EUTELSAT 117 WEST A,2013-012A,2026-07-10T08:14:42.859968,1.00271808,.00026542,0.0122,29.3120,86.5059,179.3176,0,U,39122,999,4866,0,-.2E-7,0
ANIK G1,2013-014A,2026-07-10T07:25:47.680032,1.00271272,.00016479,0.0496,262.2306,218.2327,171.9126,0,U,39127,999,4848,0,-.63E-6,0
ZHONGXING-11,2013-020A,2026-07-10T02:05:36.331584,1.00271171,.00022903,0.0224,39.6718,44.5131,333.1476,0,U,39157,999,4812,0,-.279E-5,0
EUTELSAT 7B,2013-022A,2026-07-10T07:33:38.628288,1.00271772,.00036117,0.0641,2.6079,44.0511,1.9823,0,U,39163,999,4817,0,.58E-6,0
WGS F5 (USA 243),2013-024A,2026-07-10T01:30:00.161568,1.00269585,.00003778,0.0243,34.5137,202.3628,21.1115,0,U,39168,999,4740,0,0,0
SES-6,2013-026A,2026-07-10T06:59:38.510880,1.00271439,.00022624,0.0357,305.1866,174.7267,232.7080,0,U,39172,999,4795,0,-.25E-5,0
IRNSS-1A,2013-034A,2026-07-07T17:25:54.891264,1.00281056,.00175755,35.7641,63.5758,183.3679,355.4225,0,U,39199,999,4757,0,.61E-6,0
MUOS-2,2013-036A,2026-07-10T05:52:05.117088,1.00271561,.00523173,5.0401,45.5545,176.4344,326.1468,0,U,39206,999,4742,0,-.7E-7,0
ALPHASAT,2013-038A,2026-07-10T05:10:09.136992,1.00269539,.0002122,2.9994,1.1902,133.4380,255.9157,0,U,39215,999,4425,0,.143E-5,0
INSAT-3D,2013-038B,2026-07-10T07:22:35.758848,1.00270856,.00005035,1.9827,82.2494,77.9398,8.2191,0,U,39216,999,4731,0,-.33E-5,0
WGS F6 (USA 244),2013-041A,2026-07-10T08:02:59.322048,1.00270133,.00014137,0.0192,34.5305,193.2095,46.0904,0,U,39222,999,4629,0,.1E-5,0
ES'HAIL 1,2013-044A,2026-07-10T06:35:14.589888,1.00273196,.00021797,0.0474,9.4258,104.9573,298.1308,0,U,39233,999,4685,0,.154E-5,0
GSAT-7,2013-044B,2026-07-10T03:47:21.753024,1.00271160,.0003146,0.1373,90.0689,177.5520,151.2572,0,U,39234,999,4548,0,-.65E-6,0
AMOS-4,2013-045A,2026-07-10T04:12:21.784032,1.00271968,.00023195,0.0464,258.3778,177.3036,340.5196,0,U,39237,999,4718,0,.18E-6,0
AEHF-3 (USA 246),2013-050A,2026-07-10T07:33:46.476000,1.00269838,.0088306,5.3493,66.9735,187.6931,22.7566,0,U,39256,999,4588,0,.35E-6,0
