GSAT-10                 
1 38779U 12051B   26191.15561429 -.00000153  00000+0  00000+0 0  9993
2 38779   0.1055 265.9328 0007471 186.8596 334.2821  1.00272033 50325
INTELSAT 23 (IS-23)     
1 38867U 12057A   26191.06250187 -.00000273  00000+0  00000+0 0  9996
2 38867   0.0141  34.5412 0000462 184.3558  38.5923  1.00269710 50185
BEIDOU-2 G6             
1 38953U 12059A   26191.08453939 -.00000167  00000+0  00000+0 0  9998
2 38953   4.4756  73.2802 0008818 329.9398 359.1724  1.00268183 50135
LUCH-5B                 
1 38977U 12061A   26191.01138831 -.00000135  00000+0  00000+0 0  9996
2 38977  10.5296  49.6499 0003731 144.0727  82.0682  1.00271225 49839
YAMAL 300K              
1 38978U 12061B   26190.60509264  .00000000  00000+0  00000+0 0  9993
2 38978   0.0176  36.1760 0000865 210.5911  81.5555  1.00269932 49859
STAR ONE C3             
1 38991U 12062A   26191.30808817 -.00000238  00000+0  00000+0 0  9997
2 38991   0.0181  39.8592 0002222  85.3974 198.9092  1.00271895 49994
EUTELSAT 21B            
1 38992U 12062B   26191.28603823  .00000141  00000+0  00000+0 0  9997
2 38992   0.0648   3.6548 0003234 106.3247 302.7833  1.00271769 50051
ECHOSTAR 16             
1 39008U 12065A   26190.84180039 -.00000270  00000+0  00000+0 0  9993
2 39008   0.0180  40.2507 0002124  68.3234  60.7553  1.00271627 49874
ZHONGXING-12            
1 39017U 12067A   26191.29895162 -.00000195  00000+0  00000+0 0  9991
2 39017   0.0232 106.3701 0002765 356.5492  20.4180  1.00269785 49748
EUTELSAT 70B            
1 39020U 12069A   26191.25461378 -.00000032  00000+0  00000+0 0  9991
2 39020   0.0615 349.6586 0003640 118.8966 341.7804  1.00270950 49746
YAMAL 402               
1 39022U 12070A   26191.22136356  .00000095  00000+0  00000+0 0  9995
2 39022   1.3209  83.8706 0003600  24.8195 314.0526  1.00272724 49620
SKYNET 5D               
1 39034U 12075A   26191.26016892  .00000110  00000+0  00000+0 0  9997
2 39034   0.0692 346.3282 0003646 138.1661 310.1412  1.00274519 49397
MEXSAT 3                
1 39035U 12075B   26191.34273870 -.00000016  00000+0  00000+0 0  9994
2 39035   0.0255 281.5915 0000630 171.4405 203.8490  1.00275557  7281
TDRS 11                 
1 39070U 13004A   26191.17598104  .00000089  00000+0  00000+0 0  9996
2 39070   3.5544  31.6255 0004745  29.3237 116.2324  1.00277638 46924
AMAZONAS 3              
1 39078U 13006A   26191.27586417 -.00000271  00000+0  00000+0 0  9995
2 39078   0.0582 230.1665 0003322 285.0494 171.2537  1.00267813 45147
AZERSPACE 1             
1 39079U 13006B   26191.29071825  .00000144  00000+0  00000+0 0  9998
2 39079   0.0237 294.6181 0001920 216.3728 287.8881  1.00273363 49037
SBIRS GEO-2 (USA 241)   
1 39120U 13011A   26191.29033372 -.00000280  00000+0  00000+0 0  9998
2 39120   4.5379  52.5137 0002039  50.0394 240.3764  1.00271485 48762
EUTELSAT 117 WEST A     
1 39122U 13012A   26191.34355162 -.00000002  00000+0  00000+0 0  9993
2 39122   0.0122  29.3120 0002654  86.5059 179.3176  1.00271808 48666
ANIK G1                 
1 39127U 13014A   26191.30957963 -.00000063  00000+0  00000+0 0  9990
2 39127   0.0496 262.2306 0001647 218.2327 171.9126  1.00271272 48480
ZHONGXING-11            
1 39157U 13020A   26191.08722606 -.00000279  00000+0  00000+0 0  9998
2 39157   0.0224  39.6718 0002290  44.5131 333.1476  1.00271171 48122
EUTELSAT 7B             
1 39163U 13022A   26191.31503042  .00000058  00000+0  00000+0 0  9998
2 39163   0.0641   2.6079 0003611  44.0511   1.9823  1.00271772 48175
WGS F5 (USA 243)        
1 39168U 13024A   26191.06250187  .00000000  00000+0  00000+0 0  9993
2 39168   0.0243  34.5137 0000377 202.3628  21.1115  1.00269585 47403
SES-6                   
1 39172U 13026A   26191.29141795 -.00000250  00000+0  00000+0 0  9997
2 39172   0.0357 305.1866 0002262 174.7267 232.7080  1.00271439 47958
IRNSS-1A                
1 39199U 13034A   26188.72632976  .00000061  00000+0  00000+0 0  9994
2 39199  35.7641  63.5758 0017575 183.3679 355.4225  1.00281056 47577
MUOS-2                  
1 39206U 13036A   26191.24450367 -.00000007  00000+0  00000+0 0  9999
2 39206   5.0401  45.5545 0052317 176.4344 326.1468  1.00271561 47427
ALPHASAT                
1 39215U 13038A   26191.21538353  .00000143  00000+0  00000+0 0  9990
2 39215   2.9994   1.1902 0002122 133.4380 255.9157  1.00269539 44251
INSAT-3D                
1 39216U 13038B   26191.30735832 -.00000330  00000+0  00000+0 0  9991
2 39216   1.9827  82.2494 0000503  77.9398   8.2191  1.00270856 47315
WGS F6 (USA 244)        
1 39222U 13041A   26191.33540882  .00000100  00000+0  00000+0 0  9998
2 39222   0.0192  34.5305 0001413 193.2095  46.0904  1.00270133 46291
ES'HAIL 1               
1 39233U 13044A   26191.27447442  .00000154  00000+0  00000+0 0  9993
2 39233   0.0474   9.4258 0002179 104.9573 298.1308  1.00273196 46856
GSAT-7                  
1 39234U 13044B   26191.15789066 -.00000065  00000+0  00000+0 0  9994
2 39234   0.1373  90.0689 0003146 177.5520 151.2572  1.00271160 45482
AMOS-4                  
1 39237U 13045A   26191.17525213  .00000018  00000+0  00000+0 0  9999
2 39237   0.0464 258.3778 0002319 177.3036 340.5196  1.00271968 47184
AEHF-3 (USA 246)        
1 39256U 13050A   26191.31512125  .00000035  00000+0  00000+0 0  9999
2 39256   5.3493  66.9735 0088306 187.6931  22.7566  1.00269838 45887
